start=new Date('2022-08-31T00:00:00.000Z').valueOf();
sats=[{"SITE":"AFETR","TLE_LINE2":"2 45535  53.0552 123.3912 0001586  77.9139 282.2028 15.06392122131146","CLASSIFICATION_TYPE":"U","PERIOD":"95.593","ARG_OF_PERICENTER":"77.9139","OBJECT_ID":"2020-025E","OBJECT_NAME":"STARLINK-1350","RCS_SIZE":"LARGE","MEAN_MOTION_DOT":"0.00000201","LAUNCH_DATE":"2020-04-22","PERIAPSIS":"546.139","MEAN_ANOMALY":"282.2028","OBJECT_TYPE":"PAYLOAD","COUNTRY_CODE":"US","REV_AT_EPOCH":"13114","TIME_SYSTEM":"UTC","ECCENTRICITY":"0.00015860","MEAN_MOTION":"15.06392122","TLE_LINE1":"1 45535U 20025E   22242.86613920  .00000201  00000-0  32376-4 0  9996","REF_FRAME":"TEME","SEMIMAJOR_AXIS":"6925.373","EPOCH":"2022-08-30T20:47:14.426880","APOAPSIS":"548.336","MEAN_ELEMENT_THEORY":"SGP4","RA_OF_ASC_NODE":"123.3912","CENTER_NAME":"EARTH","EPHEMERIS_TYPE":"0","MEAN_MOTION_DDOT":"0.0000000000000","GP_ID":"211357407","BSTAR":"0.00003237600000","NORAD_CAT_ID":"45535","INCLINATION":"53.0552","ELEMENT_SET_NO":"999","DECAY_DATE":null,"FILE":"3552179"},{"MEAN_MOTION":"15.06335705","ECCENTRICITY":"0.00008930","TIME_SYSTEM":"UTC","REV_AT_EPOCH":"13113","OBJECT_TYPE":"PAYLOAD","COUNTRY_CODE":"US","RCS_SIZE":"LARGE","MEAN_MOTION_DOT":"0.00016824","LAUNCH_DATE":"2020-04-22","PERIAPSIS":"546.792","MEAN_ANOMALY":"269.1853","CLASSIFICATION_TYPE":"U","ARG_OF_PERICENTER":"90.9238","PERIOD":"95.596","OBJECT_ID":"2020-025F","OBJECT_NAME":"STARLINK-1352","SITE":"AFETR","TLE_LINE2":"2 45536  53.0548 123.3779 0000893  90.9238 269.1853 15.06335705131131","ELEMENT_SET_NO":"999","DECAY_DATE":null,"FILE":"3552179","BSTAR":"0.00114760000000","NORAD_CAT_ID":"45536","INCLINATION":"53.0548","CENTER_NAME":"EARTH","EPHEMERIS_TYPE":"0","GP_ID":"211357158","MEAN_MOTION_DDOT":"0.0000000000000","MEAN_ELEMENT_THEORY":"SGP4","RA_OF_ASC_NODE":"123.3779","APOAPSIS":"548.029","SEMIMAJOR_AXIS":"6925.546","EPOCH":"2022-08-30T20:52:34.634784","REF_FRAME":"TEME","TLE_LINE1":"1 45536U 20025F   22242.86984531  .00016824  00000-0  11476-2 0  9990"},{"MEAN_ANOMALY":"69.6388","RCS_SIZE":"LARGE","LAUNCH_DATE":"2020-04-22","PERIAPSIS":"484.125","MEAN_MOTION_DOT":"0.00012998","COUNTRY_CODE":"US","OBJECT_TYPE":"PAYLOAD","TLE_LINE2":"2 45537  52.9777  66.8413 0000622 290.4542  69.6388 15.27078991131898","SITE":"AFETR","ARG_OF_PERICENTER":"290.4542","PERIOD":"94.298","OBJECT_ID":"2020-025G","OBJECT_NAME":"STARLINK-1353","CLASSIFICATION_TYPE":"U","ECCENTRICITY":"0.00006220","MEAN_MOTION":"15.27078991","REV_AT_EPOCH":"13189","TIME_SYSTEM":"UTC","EPOCH":"2022-08-30T20:19:35.145120","SEMIMAJOR_AXIS":"6862.687","APOAPSIS":"484.979","TLE_LINE1":"1 45537U 20025G   22242.84693455  .00012998  00000-0  49490-3 0  9997","REF_FRAME":"TEME","INCLINATION":"52.9777","NORAD_CAT_ID":"45537","BSTAR":"0.00049490000000","ELEMENT_SET_NO":"999","FILE":"3552179","DECAY_DATE":null,"RA_OF_ASC_NODE":"66.8413","MEAN_ELEMENT_THEORY":"SGP4","EPHEMERIS_TYPE":"0","GP_ID":"211358409","MEAN_MOTION_DDOT":"0.0000000000000","CENTER_NAME":"EARTH"},{"APOAPSIS":"548.413","EPOCH":"2022-08-30T21:29:42.292896","SEMIMAJOR_AXIS":"6925.366","REF_FRAME":"TEME","TLE_LINE1":"1 45538U 20025H   22242.89562839 -.00001107  00000-0 -55415-4 0  9991","DECAY_DATE":null,"FILE":"3552179","ELEMENT_SET_NO":"999","INCLINATION":"53.0552","BSTAR":"-0.00005541500000","NORAD_CAT_ID":"45538","GP_ID":"211358159","MEAN_MOTION_DDOT":"0.0000000000000","EPHEMERIS_TYPE":"0","CENTER_NAME":"EARTH","MEAN_ELEMENT_THEORY":"SGP4","RA_OF_ASC_NODE":"123.2709","COUNTRY_CODE":"US","OBJECT_TYPE":"PAYLOAD","MEAN_ANOMALY":"288.0067","MEAN_MOTION_DOT":"-0.00001107","LAUNCH_DATE":"2020-04-22","PERIAPSIS":"546.048","RCS_SIZE":"LARGE","OBJECT_ID":"2020-025H","OBJECT_NAME":"STARLINK-1362","PERIOD":"95.592","ARG_OF_PERICENTER":"72.1108","CLASSIFICATION_TYPE":"U","TLE_LINE2":"2 45538  53.0552 123.2709 0001707  72.1108 288.0067 15.06394471131146","SITE":"AFETR","MEAN_MOTION":"15.06394471","ECCENTRICITY":"0.00017070","TIME_SYSTEM":"UTC","REV_AT_EPOCH":"13114"},{"INCLINATION":"53.0564","BSTAR":"0.00000670310000","NORAD_CAT_ID":"45540","ELEMENT_SET_NO":"999","DECAY_DATE":null,"FILE":"3552179","MEAN_ELEMENT_THEORY":"SGP4","RA_OF_ASC_NODE":"123.3729","EPHEMERIS_TYPE":"0","GP_ID":"211356909","MEAN_MOTION_DDOT":"0.0000000000000","CENTER_NAME":"EARTH","EPOCH":"2022-08-30T20:57:50.504544","SEMIMAJOR_AXIS":"6925.365","APOAPSIS":"548.306","TLE_LINE1":"1 45540U 20025K   22242.87350121 -.00000182  00000-0  67031-5 0  9990","REF_FRAME":"TEME","ECCENTRICITY":"0.00015540","MEAN_MOTION":"15.06394582","REV_AT_EPOCH":"13113","TIME_SYSTEM":"UTC","MEAN_ANOMALY":"279.7563","RCS_SIZE":"LARGE","PERIAPSIS":"546.154","LAUNCH_DATE":"2020-04-22","MEAN_MOTION_DOT":"-0.00000182","COUNTRY_CODE":"US","OBJECT_TYPE":"PAYLOAD","TLE_LINE2":"2 45540  53.0564 123.3729 0001554  80.3602 279.7563 15.06394582131135","SITE":"AFETR","ARG_OF_PERICENTER":"80.3602","PERIOD":"95.592","OBJECT_NAME":"STARLINK-1368","OBJECT_ID":"2020-025K","CLASSIFICATION_TYPE":"U"},{"LAUNCH_DATE":"2020-04-22","MEAN_MOTION_DOT":"0.00000865","PERIAPSIS":"546.192","RCS_SIZE":"LARGE","MEAN_ANOMALY":"279.8692","OBJECT_TYPE":"PAYLOAD","COUNTRY_CODE":"US","SITE":"AFETR","TLE_LINE2":"2 45541  53.0559 123.3449 0001461  80.2462 279.8692 15.06403299131139","CLASSIFICATION_TYPE":"U","OBJECT_ID":"2020-025L","OBJECT_NAME":"STARLINK-1369","ARG_OF_PERICENTER":"80.2462","PERIOD":"95.592","ECCENTRICITY":"0.00014610","MEAN_MOTION":"15.06403299","REV_AT_EPOCH":"13113","TIME_SYSTEM":"UTC","SEMIMAJOR_AXIS":"6925.338","EPOCH":"2022-08-30T21:03:08.474688","APOAPSIS":"548.215","TLE_LINE1":"1 45541U 20025L   22242.87718142  .00000865  00000-0  76971-4 0  9991","REF_FRAME":"TEME","BSTAR":"0.00007697100000","NORAD_CAT_ID":"45541","INCLINATION":"53.0559","DECAY_DATE":null,"FILE":"3552179","ELEMENT_SET_NO":"999","MEAN_ELEMENT_THEORY":"SGP4","RA_OF_ASC_NODE":"123.3449","CENTER_NAME":"EARTH","GP_ID":"211357658","MEAN_MOTION_DDOT":"0.0000000000000","EPHEMERIS_TYPE":"0"},{"EPOCH":"2022-08-30T20:15:23.976000","SEMIMAJOR_AXIS":"6925.369","APOAPSIS":"548.287","TLE_LINE1":"1 45542U 20025M   22242.84402750 -.00001078  00000-0 -53459-4 0  9999","REF_FRAME":"TEME","INCLINATION":"53.0556","NORAD_CAT_ID":"45542","BSTAR":"-0.00005345900000","ELEMENT_SET_NO":"999","DECAY_DATE":null,"FILE":"3552179","MEAN_ELEMENT_THEORY":"SGP4","RA_OF_ASC_NODE":"123.5085","EPHEMERIS_TYPE":"0","GP_ID":"211357909","MEAN_MOTION_DDOT":"0.0000000000000","CENTER_NAME":"EARTH","MEAN_ANOMALY":"282.4848","RCS_SIZE":"LARGE","MEAN_MOTION_DOT":"-0.00001078","LAUNCH_DATE":"2020-04-22","PERIAPSIS":"546.182","COUNTRY_CODE":"US","OBJECT_TYPE":"PAYLOAD","TLE_LINE2":"2 45542  53.0556 123.5085 0001520  77.6311 282.4848 15.06393236131136","SITE":"AFETR","PERIOD":"95.593","ARG_OF_PERICENTER":"77.6311","OBJECT_NAME":"STARLINK-1371","OBJECT_ID":"2020-025M","CLASSIFICATION_TYPE":"U","ECCENTRICITY":"0.00015200","MEAN_MOTION":"15.06393236","REV_AT_EPOCH":"13113","TIME_SYSTEM":"UTC"},{"TLE_LINE1":"1 45543U 20025N   22242.88088004 -.00001297  00000-0 -68190-4 0  9997","REF_FRAME":"TEME","EPOCH":"2022-08-30T21:08:28.035456","SEMIMAJOR_AXIS":"6925.359","APOAPSIS":"548.328","RA_OF_ASC_NODE":"123.3353","MEAN_ELEMENT_THEORY":"SGP4","EPHEMERIS_TYPE":"0","MEAN_MOTION_DDOT":"0.0000000000000","GP_ID":"211358660","CENTER_NAME":"EARTH","INCLINATION":"53.0545","NORAD_CAT_ID":"45543","BSTAR":"-0.00006819000000","ELEMENT_SET_NO":"999","FILE":"3552179","DECAY_DATE":null,"TLE_LINE2":"2 45543  53.0545 123.3353 0001595  78.1479 281.9689 15.06396734130237","SITE":"AFETR","PERIOD":"95.592","ARG_OF_PERICENTER":"78.1479","OBJECT_NAME":"STARLINK-1372","OBJECT_ID":"2020-025N","CLASSIFICATION_TYPE":"U","MEAN_ANOMALY":"281.9689","RCS_SIZE":"LARGE","LAUNCH_DATE":"2020-04-22","PERIAPSIS":"546.119","MEAN_MOTION_DOT":"-0.00001297","COUNTRY_CODE":"US","OBJECT_TYPE":"PAYLOAD","REV_AT_EPOCH":"13023","TIME_SYSTEM":"UTC","ECCENTRICITY":"0.00015950","MEAN_MOTION":"15.06396734"},{"GP_ID":"211357408","MEAN_MOTION_DDOT":"0.0000000000000","EPHEMERIS_TYPE":"0","CENTER_NAME":"EARTH","MEAN_ELEMENT_THEORY":"SGP4","RA_OF_ASC_NODE":"123.2568","FILE":"3552179","DECAY_DATE":null,"ELEMENT_SET_NO":"999","INCLINATION":"53.0557","BSTAR":"-0.00004216700000","NORAD_CAT_ID":"45544","REF_FRAME":"TEME","TLE_LINE1":"1 45544U 20025P   22242.89930712 -.00000909  00000-0 -42167-4 0  9996","APOAPSIS":"548.198","EPOCH":"2022-08-30T21:35:00.135168","SEMIMAJOR_AXIS":"6925.374","TIME_SYSTEM":"UTC","REV_AT_EPOCH":"13114","MEAN_MOTION":"15.06391613","ECCENTRICITY":"0.00013850","OBJECT_ID":"2020-025P","OBJECT_NAME":"STARLINK-1373","ARG_OF_PERICENTER":"90.1560","PERIOD":"95.593","CLASSIFICATION_TYPE":"U","TLE_LINE2":"2 45544  53.0557 123.2568 0001385  90.1560 269.9588 15.06391613131146","SITE":"AFETR","COUNTRY_CODE":"US","OBJECT_TYPE":"PAYLOAD","MEAN_ANOMALY":"269.9588","MEAN_MOTION_DOT":"-0.00000909","LAUNCH_DATE":"2020-04-22","PERIAPSIS":"546.280","RCS_SIZE":"LARGE"},{"PERIOD":"95.593","ARG_OF_PERICENTER":"75.3891","OBJECT_ID":"2020-025Q","OBJECT_NAME":"STARLINK-1374","CLASSIFICATION_TYPE":"U","TLE_LINE2":"2 45545  53.0564 123.4595 0001758  75.3891 284.7293 15.06393316131110","SITE":"AFETR","COUNTRY_CODE":"US","OBJECT_TYPE":"PAYLOAD","MEAN_ANOMALY":"284.7293","RCS_SIZE":"LARGE","LAUNCH_DATE":"2020-04-22","PERIAPSIS":"546.017","MEAN_MOTION_DOT":"-0.00000555","TIME_SYSTEM":"UTC","REV_AT_EPOCH":"13111","MEAN_MOTION":"15.06393316","ECCENTRICITY":"0.00017580","REF_FRAME":"TEME","TLE_LINE1":"1 45545U 20025Q   22242.85139733 -.00000555  00000-0 -18392-4 0  9997","APOAPSIS":"548.452","EPOCH":"2022-08-30T20:26:00.729312","SEMIMAJOR_AXIS":"6925.369","EPHEMERIS_TYPE":"0","GP_ID":"211357159","MEAN_MOTION_DDOT":"0.0000000000000","CENTER_NAME":"EARTH","RA_OF_ASC_NODE":"123.4595","MEAN_ELEMENT_THEORY":"SGP4","ELEMENT_SET_NO":"999","FILE":"3552179","DECAY_DATE":null,"INCLINATION":"53.0564","BSTAR":"-0.00001839200000","NORAD_CAT_ID":"45545"}];
